BRO-5                   
1 51061U 22002CF  26204.83001922  .00014959  00000+0  27651-3 0  9999
2 51061  97.2975 278.8702 0006285 171.8210 188.3145 15.49135296251923
BRO-6                   
1 52422U 22047AE  26204.82779480  .00049425  00000+0  78605-3 0  9991
2 52422  97.3383 296.6526 0003243 263.7461  96.3423 15.53153098236836
BRO-8                   
1 55011U 23001C   26204.84261773  .00041424  00000+0  70701-3 0  9992
2 55011  97.3181 270.6063 0004001   4.9907 355.1385 15.51210673197885
BRO-11                  
1 58264U 23174J   26204.86617520  .00004417  00000+0  16591-3 0  9991
2 58264  97.3891 281.3774 0011938  81.3817 278.8774 15.27647304150352
BRO-13                  
1 59107U 24043K   26204.79746366  .00001143  00000+0  10541-3 0  9999
2 59107  97.8541 335.9420 0007600 229.9512 130.1043 14.96672736130093
BRO-12                  
1 59108U 24043L   26204.85447756  .00001683  00000+0  15178-3 0  9998
2 59108  97.8527 336.1699 0007077 221.3092 138.7594 14.96915271130129
BRO-14                  
1 60551U 24149CM  26204.64314356  .00000760  00000+0  72351-4 0  9997
2 60551  97.6860 279.7651 0006074 349.5992  10.5103 14.96253744105449
BRO-15                  
1 60553U 24149CP  26204.62593955  .00001170  00000+0  10870-3 0  9994
2 60553  97.6791 279.3159 0006915 337.1696  22.9217 14.96234610105456
BRO-16                  
1 62654U 25009AX  26204.64931596  .00003647  00000+0  15275-3 0  9998
2 62654  97.4044 284.6874 0002942 138.4534 221.6927 15.24172287 84355
BRO-18                  
1 64550U 25135Y   26204.80308839  .00004874  00000+0  21511-3 0  9994
2 64550  97.4652 319.5584 0002735 104.8464 255.3075 15.22222895 60443
BRO-17                  
1 66672U 25276G   26204.17131594  .00002569  00000+0  12894-3 0  9992
2 66672  97.4176 276.5839 0005592 224.7423 135.3361 15.18191712 35857
BRO-20                  
1 66674U 25276J   26204.47596926  .00003077  00000+0  15304-3 0  9995
2 66674  97.4153 276.8704 0005122 225.5332 134.5483 15.18360426 35907
BRO-19                  
1 68422U 26067G   26203.82113402  .00003509  00000+0  17082-3 0  9994
2 68422  97.4492 161.7746 0002762  99.2301 260.9246 15.19027563 17356
BRO-21                  
1 69007U 26100AD  26204.62415102  .00002231  00000+0  10174-3 0  9999
2 69007  97.4000 101.9193 0006156 293.1122  66.9464 15.21658406 12349
BRO-22                  
1 69504U 26132C   26204.58058495  .00001657  00000+0  13830-3 0  9992
2 69504  97.6823 267.7922 0017581 150.8912 209.3295 14.99832854  6238
