{"fetched_at":"2026-07-24T07:06:21.074Z","source":"https://celestrak.org/NORAD/elements/gp.php?NAME=BRO&FORMAT=JSON","constellation":"unseenlabs","records":[{"OBJECT_NAME":"BRO-5","OBJECT_ID":"2022-002CF","EPOCH":"2026-07-23T19:55:13.660608","CLASSIFICATION_TYPE":"U","MEAN_MOTION":15.49135296,"ECCENTRICITY":0.0006285,"INCLINATION":97.2975,"RA_OF_ASC_NODE":278.8702,"ARG_OF_PERICENTER":171.821,"MEAN_ANOMALY":188.3145,"EPHEMERIS_TYPE":0,"NORAD_CAT_ID":51061,"ELEMENT_SET_NO":999,"REV_AT_EPOCH":25192,"BSTAR":0.00027651,"MEAN_MOTION_DOT":0.00014959,"MEAN_MOTION_DDOT":0},{"OBJECT_NAME":"BRO-6","OBJECT_ID":"2022-047AE","EPOCH":"2026-07-23T19:52:01.470720","CLASSIFICATION_TYPE":"U","MEAN_MOTION":15.53153098,"ECCENTRICITY":0.0003243,"INCLINATION":97.3383,"RA_OF_ASC_NODE":296.6526,"ARG_OF_PERICENTER":263.7461,"MEAN_ANOMALY":96.3423,"EPHEMERIS_TYPE":0,"NORAD_CAT_ID":52422,"ELEMENT_SET_NO":999,"REV_AT_EPOCH":23683,"BSTAR":0.00078605,"MEAN_MOTION_DOT":0.00049425,"MEAN_MOTION_DDOT":0},{"OBJECT_NAME":"BRO-8","OBJECT_ID":"2023-001C","EPOCH":"2026-07-23T20:13:22.171872","CLASSIFICATION_TYPE":"U","MEAN_MOTION":15.51210673,"ECCENTRICITY":0.0004001,"INCLINATION":97.3181,"RA_OF_ASC_NODE":270.6063,"ARG_OF_PERICENTER":4.9907,"MEAN_ANOMALY":355.1385,"EPHEMERIS_TYPE":0,"NORAD_CAT_ID":55011,"ELEMENT_SET_NO":999,"REV_AT_EPOCH":19788,"BSTAR":0.00070701,"MEAN_MOTION_DOT":0.00041424,"MEAN_MOTION_DDOT":0},{"OBJECT_NAME":"BRO-11","OBJECT_ID":"2023-174J","EPOCH":"2026-07-23T20:47:17.537280","CLASSIFICATION_TYPE":"U","MEAN_MOTION":15.27647304,"ECCENTRICITY":0.0011938,"INCLINATION":97.3891,"RA_OF_ASC_NODE":281.3774,"ARG_OF_PERICENTER":81.3817,"MEAN_ANOMALY":278.8774,"EPHEMERIS_TYPE":0,"NORAD_CAT_ID":58264,"ELEMENT_SET_NO":999,"REV_AT_EPOCH":15035,"BSTAR":0.00016591,"MEAN_MOTION_DOT":0.00004417,"MEAN_MOTION_DDOT":0},{"OBJECT_NAME":"BRO-13","OBJECT_ID":"2024-043K","EPOCH":"2026-07-23T19:08:20.860224","CLASSIFICATION_TYPE":"U","MEAN_MOTION":14.96672736,"ECCENTRICITY":0.00076,"INCLINATION":97.8541,"RA_OF_ASC_NODE":335.942,"ARG_OF_PERICENTER":229.9512,"MEAN_ANOMALY":130.1043,"EPHEMERIS_TYPE":0,"NORAD_CAT_ID":59107,"ELEMENT_SET_NO":999,"REV_AT_EPOCH":13009,"BSTAR":0.00010541,"MEAN_MOTION_DOT":0.00001143,"MEAN_MOTION_DDOT":0},{"OBJECT_NAME":"BRO-12","OBJECT_ID":"2024-043L","EPOCH":"2026-07-23T20:30:26.861184","CLASSIFICATION_TYPE":"U","MEAN_MOTION":14.96915271,"ECCENTRICITY":0.0007077,"INCLINATION":97.8527,"RA_OF_ASC_NODE":336.1699,"ARG_OF_PERICENTER":221.3092,"MEAN_ANOMALY":138.7594,"EPHEMERIS_TYPE":0,"NORAD_CAT_ID":59108,"ELEMENT_SET_NO":999,"REV_AT_EPOCH":13012,"BSTAR":0.00015178,"MEAN_MOTION_DOT":0.00001683,"MEAN_MOTION_DDOT":0},{"OBJECT_NAME":"BRO-14","OBJECT_ID":"2024-149CM","EPOCH":"2026-07-23T15:26:07.603584","CLASSIFICATION_TYPE":"U","MEAN_MOTION":14.96253744,"ECCENTRICITY":0.0006074,"INCLINATION":97.686,"RA_OF_ASC_NODE":279.7651,"ARG_OF_PERICENTER":349.5992,"MEAN_ANOMALY":10.5103,"EPHEMERIS_TYPE":0,"NORAD_CAT_ID":60551,"ELEMENT_SET_NO":999,"REV_AT_EPOCH":10544,"BSTAR":0.000072351,"MEAN_MOTION_DOT":0.0000076,"MEAN_MOTION_DDOT":0},{"OBJECT_NAME":"BRO-15","OBJECT_ID":"2024-149CP","EPOCH":"2026-07-23T15:01:21.177120","CLASSIFICATION_TYPE":"U","MEAN_MOTION":14.9623461,"ECCENTRICITY":0.0006915,"INCLINATION":97.6791,"RA_OF_ASC_NODE":279.3159,"ARG_OF_PERICENTER":337.1696,"MEAN_ANOMALY":22.9217,"EPHEMERIS_TYPE":0,"NORAD_CAT_ID":60553,"ELEMENT_SET_NO":999,"REV_AT_EPOCH":10545,"BSTAR":0.0001087,"MEAN_MOTION_DOT":0.0000117,"MEAN_MOTION_DDOT":0},{"OBJECT_NAME":"BRO-16","OBJECT_ID":"2025-009AX","EPOCH":"2026-07-23T15:35:00.898944","CLASSIFICATION_TYPE":"U","MEAN_MOTION":15.24172287,"ECCENTRICITY":0.0002942,"INCLINATION":97.4044,"RA_OF_ASC_NODE":284.6874,"ARG_OF_PERICENTER":138.4534,"MEAN_ANOMALY":221.6927,"EPHEMERIS_TYPE":0,"NORAD_CAT_ID":62654,"ELEMENT_SET_NO":999,"REV_AT_EPOCH":8435,"BSTAR":0.00015275,"MEAN_MOTION_DOT":0.00003647,"MEAN_MOTION_DDOT":0},{"OBJECT_NAME":"BRO-18","OBJECT_ID":"2025-135Y","EPOCH":"2026-07-23T19:16:26.836896","CLASSIFICATION_TYPE":"U","MEAN_MOTION":15.22222895,"ECCENTRICITY":0.0002735,"INCLINATION":97.4652,"RA_OF_ASC_NODE":319.5584,"ARG_OF_PERICENTER":104.8464,"MEAN_ANOMALY":255.3075,"EPHEMERIS_TYPE":0,"NORAD_CAT_ID":64550,"ELEMENT_SET_NO":999,"REV_AT_EPOCH":6044,"BSTAR":0.00021511,"MEAN_MOTION_DOT":0.00004874,"MEAN_MOTION_DDOT":0},{"OBJECT_NAME":"BRO-17","OBJECT_ID":"2025-276G","EPOCH":"2026-07-23T04:06:41.697216","CLASSIFICATION_TYPE":"U","MEAN_MOTION":15.18191712,"ECCENTRICITY":0.0005592,"INCLINATION":97.4176,"RA_OF_ASC_NODE":276.5839,"ARG_OF_PERICENTER":224.7423,"MEAN_ANOMALY":135.3361,"EPHEMERIS_TYPE":0,"NORAD_CAT_ID":66672,"ELEMENT_SET_NO":999,"REV_AT_EPOCH":3585,"BSTAR":0.00012894,"MEAN_MOTION_DOT":0.00002569,"MEAN_MOTION_DDOT":0},{"OBJECT_NAME":"BRO-20","OBJECT_ID":"2025-276J","EPOCH":"2026-07-23T11:25:23.744064","CLASSIFICATION_TYPE":"U","MEAN_MOTION":15.18360426,"ECCENTRICITY":0.0005122,"INCLINATION":97.4153,"RA_OF_ASC_NODE":276.8704,"ARG_OF_PERICENTER":225.5332,"MEAN_ANOMALY":134.5483,"EPHEMERIS_TYPE":0,"NORAD_CAT_ID":66674,"ELEMENT_SET_NO":999,"REV_AT_EPOCH":3590,"BSTAR":0.00015304,"MEAN_MOTION_DOT":0.00003077,"MEAN_MOTION_DDOT":0},{"OBJECT_NAME":"BRO-19","OBJECT_ID":"2026-067G","EPOCH":"2026-07-22T19:42:25.979328","CLASSIFICATION_TYPE":"U","MEAN_MOTION":15.19027563,"ECCENTRICITY":0.00027624,"INCLINATION":97.4492,"RA_OF_ASC_NODE":161.7746,"ARG_OF_PERICENTER":99.2301,"MEAN_ANOMALY":260.9246,"EPHEMERIS_TYPE":0,"NORAD_CAT_ID":68422,"ELEMENT_SET_NO":999,"REV_AT_EPOCH":1735,"BSTAR":0.00017081656,"MEAN_MOTION_DOT":0.00003509,"MEAN_MOTION_DDOT":0},{"OBJECT_NAME":"BRO-21","OBJECT_ID":"2026-100AD","EPOCH":"2026-07-23T14:58:46.648128","CLASSIFICATION_TYPE":"U","MEAN_MOTION":15.21658406,"ECCENTRICITY":0.0006156,"INCLINATION":97.4,"RA_OF_ASC_NODE":101.9193,"ARG_OF_PERICENTER":293.1122,"MEAN_ANOMALY":66.9464,"EPHEMERIS_TYPE":0,"NORAD_CAT_ID":69007,"ELEMENT_SET_NO":999,"REV_AT_EPOCH":1234,"BSTAR":0.00010174,"MEAN_MOTION_DOT":0.00002231,"MEAN_MOTION_DDOT":0},{"OBJECT_NAME":"BRO-22","OBJECT_ID":"2026-132C","EPOCH":"2026-07-23T13:56:02.539680","CLASSIFICATION_TYPE":"U","MEAN_MOTION":14.99832854,"ECCENTRICITY":0.0017581,"INCLINATION":97.6823,"RA_OF_ASC_NODE":267.7922,"ARG_OF_PERICENTER":150.8912,"MEAN_ANOMALY":209.3295,"EPHEMERIS_TYPE":0,"NORAD_CAT_ID":69504,"ELEMENT_SET_NO":999,"REV_AT_EPOCH":623,"BSTAR":0.0001383,"MEAN_MOTION_DOT":0.00001657,"MEAN_MOTION_DDOT":0}]}
